{
    "links": {
        "self": "http://www.neowsapp.com/rest/v1/neo/3837739?api_key=iIulBulltgU6a56xZRHN4H3l9WmuAYTsLGpBGhQ2"
    },
    "id": "3837739",
    "neo_reference_id": "3837739",
    "name": "(2019 AM7)",
    "designation": "2019 AM7",
    "nasa_jpl_url": "http://ssd.jpl.nasa.gov/sbdb.cgi?sstr=3837739",
    "absolute_magnitude_h": 24.8,
    "estimated_diameter": {
        "kilometers": {
            "estimated_diameter_min": 0.0291443905,
            "estimated_diameter_max": 0.0651688382
        },
        "meters": {
            "estimated_diameter_min": 29.1443904535,
            "estimated_diameter_max": 65.1688382168
        },
        "miles": {
            "estimated_diameter_min": 0.018109479,
            "estimated_diameter_max": 0.0404940262
        },
        "feet": {
            "estimated_diameter_min": 95.6180819754,
            "estimated_diameter_max": 213.8085311752
        }
    },
    "is_potentially_hazardous_asteroid": false,
    "close_approach_data": [
        {
            "close_approach_date": "2018-12-16",
            "close_approach_date_full": "2018-Dec-16 23:52",
            "epoch_date_close_approach": 1545004320000,
            "relative_velocity": {
                "kilometers_per_second": "8.0404709733",
                "kilometers_per_hour": "28945.6955040447",
                "miles_per_hour": "17985.7295202771"
            },
            "miss_distance": {
                "astronomical": "0.0257407027",
                "lunar": "10.0131333503",
                "kilometers": "3850754.296223249",
                "miles": "2392747.7664848762"
            },
            "orbiting_body": "Earth"
        }
    ],
    "orbital_data": {
        "orbit_id": "2",
        "orbit_determination_date": "2019-07-17 06:12:49",
        "first_observation_date": "2019-01-07",
        "last_observation_date": "2019-01-10",
        "data_arc_in_days": 3,
        "observations_used": 11,
        "orbit_uncertainty": "9",
        "minimum_orbit_intersection": ".00398335",
        "jupiter_tisserand_invariant": "3.908",
        "epoch_osculation": "2458491.5",
        "eccentricity": ".4851619108209962",
        "semi_major_axis": "1.808899568118521",
        "inclination": ".7139845181669273",
        "ascending_node_longitude": "181.7407549028758",
        "orbital_period": "888.6282374877193",
        "perihelion_distance": ".9312903971668647",
        "perihelion_argument": "236.3741830474566",
        "aphelion_distance": "2.686508739070177",
        "perihelion_time": "2458448.401139766212",
        "mean_anomaly": "17.46015828624634",
        "mean_motion": ".4051187941289961",
        "equinox": "J2000",
        "orbit_class": {
            "orbit_class_type": "APO",
            "orbit_class_description": "Near-Earth asteroid orbits which cross the Earth’s orbit similar to that of 1862 Apollo",
            "orbit_class_range": "a (semi-major axis) > 1.0 AU; q (perihelion) < 1.017 AU"
        }
    },
    "is_sentry_object": false
}